IRIDIUM 36 [-]          
1 24967U 97056C   23285.81748497  .00001319  00000+0  44347-3 0  9991
2 24967  86.3941  70.5060 0002039  96.2503 263.8926 14.36445682364134
IRIDIUM 39 [-]          
1 25042U 97069D   23285.59388531  .00001510  00000+0  40558-3 0  9997
2 25042  86.3872 113.9304 0017976 187.1447 172.9502 14.47405791360155
IRIDIUM 38 [-]          
1 25043U 97069E   23285.62520242  .00000876  00000+0  28972-3 0  9999
2 25043  86.3942 131.1062 0002192  26.0888 334.0419 14.36911037358070
IRIDIUM 42 [-]          
1 25077U 97077A   23285.59355882  .00000771  00000+0  26274-3 0  9994
2 25077  86.3957 136.5400 0001835  68.6599 291.4793 14.35224860353157
IRIDIUM 44 [-]          
1 25078U 97077B   23285.58709965  .00001001  00000+0  31800-3 0  9997
2 25078  86.3918 120.1184 0000795 150.7024 209.4219 14.39013409355426
IRIDIUM 45 [-]          
1 25104U 97082A   23285.60668231  .00014394  00000+0  92062-3 0  9992
2 25104  86.3789 338.2684 0181472  59.3057 302.5913 14.95792825359610
IRIDIUM 24 [-]          
1 25105U 97082B   23285.56369224  .00001048  00000+0  32139-3 0  9999
2 25105  86.3942 340.1480 0009723 310.2178  49.8169 14.40772239354828
IRIDIUM 51 [-]          
1 25262U 98018A   23285.72064308  .00017126  00000+0  94796-3 0  9997
2 25262  86.3972 348.7474 0165741  13.8392 346.7301 15.02648819354225
